{"fetched_at":"2026-05-15T02:58:15Z","count":8847,"tles":[{"name":"SYRACUSE 4B","line1":"1 57214U 23093B   26134.24630178  .00000000  00000+0  00000+0 0  9991","line2":"2 57214   0.0162 299.2752 0000336 255.4327 119.4773  1.00269448  6626","category":"Other"},{"name":"KUZGTU 1 (RS47S)","line1":"1 57217U 23091AV  26134.27437353  .00007772  00000+0  27784-3 0  9990","line2":"2 57217  97.5087 198.4275 0010570 208.1950 151.8719 15.29049585159199","category":"Other"},{"name":"CSTP 1.1 (STC 1.1)","line1":"1 57202U 23091AN  26134.28095232  .00003253  00000+0  15964-3 0  9998","line2":"2 57202  97.5138 193.2840 0008620 219.1584 140.9027 15.18785798158819","category":"Other"},{"name":"SITRO-AIS 11 (SHEFFER)","line1":"1 57208U 23091AU  26134.25555459  .00013014  00000+0  35559-3 0  9991","line2":"2 57208  97.5109 204.4482 0007116 176.2679 183.8620 15.37504294159577","category":"Other"},{"name":"SITRO-AIS 6 (CHIRKIN)","line1":"1 57192U 23091AC  26134.26931657  .00004357  00000+0  17597-3 0  9994","line2":"2 57192  97.5091 197.1594 0010975 218.4017 141.6440 15.25260477159114","category":"Other"},{"name":"UTMN 2 (RS27S)","line1":"1 57203U 23091AP  26134.28337716  .00008516  00000+0  28505-3 0  9997","line2":"2 57203  97.5109 201.0551 0008198 188.3136 171.7970 15.31182486159354","category":"Other"},{"name":"VIZARD-METEO (RS38S)","line1":"1 57189U 23091Z   26134.25911095  .00011170  00000+0  33198-3 0  9999","line2":"2 57189  97.5111 203.0920 0007786 180.5665 179.5571 15.34905076159483","category":"Other"},{"name":"2023-091AS","line1":"1 57206U 23091AS  26134.26628118  .00049686  00000+0  65143-3 0  9999","line2":"2 57206  97.5064 212.1307 0005367 161.4419 198.7034 15.58404611160101","category":"Other"},{"name":"POLYTECH-UNIVERSE 3 (R*)","line1":"1 57191U 23091AB  26134.28115930  .00003126  00000+0  15336-3 0  9995","line2":"2 57191  97.5072 192.2926 0014166 244.3162 115.6610 15.18778554158809","category":"Other"},{"name":"SITRO-AIS 8 (ANOKHIN)","line1":"1 57193U 23091AD  26134.24522534  .00008932  00000+0  29873-3 0  9996","line2":"2 57193  97.5078 199.2950 0010160 210.0764 149.9895 15.31178410159254","category":"Other"},{"name":"H2SAT (HEINRICH HERTZ)","line1":"1 57213U 23093A   26134.24777513  .00000000  00000+0  00000+0 0  9995","line2":"2 57213   0.0112 264.9353 0001074 210.8910 206.0589  1.00276862 10574","category":"Other"},{"name":"STARLINK-5525","line1":"1 57218U 23094A   26133.98964161  .00000792  00000+0  38298-4 0  9991","line2":"2 57218  43.0023  21.8316 0001050 262.1796  97.8936 15.27568521157105","category":"Starlink"},{"name":"SITRO-AIS 12 (SMIRENNIY)","line1":"1 57204U 23091AQ  26134.29821685  .00012471  00000+0  34520-3 0  9991","line2":"2 57204  97.5111 204.2657 0007182 176.3198 183.8100 15.37112936159568","category":"Other"},{"name":"HORS 1","line1":"1 57188U 23091Y   26134.28363951  .00005969  00000+0  23407-3 0  9994","line2":"2 57188  97.5091 197.6928 0008562 201.5337 158.5543 15.26105895159149","category":"Other"},{"name":"AVION KALUGA 650","line1":"1 57195U 23091AF  26134.26238682  .00003618  00000+0  17118-3 0  9993","line2":"2 57195  97.5114 193.9819 0009401 221.5043 138.5479 15.19975592158876","category":"Other"},{"name":"HORS 2","line1":"1 57196U 23091AG  26134.25221046  .00009428  00000+0  31712-3 0  9990","line2":"2 57196  97.5110 200.8406 0008180 192.7547 167.3488 15.30994010159335","category":"Other"},{"name":"STARLINK-6294","line1":"1 57225U 23094H   26133.96406842  .00000985  00000+0  45317-4 0  9998","line2":"2 57225  43.0050  22.4834 0001412 269.3775  90.6915 15.27576829157099","category":"Starlink"},{"name":"STARLINK-5983","line1":"1 57224U 23094G   26133.97934393 -.00000037  00000+0  81734-5 0  9998","line2":"2 57224  43.0030  21.7471 0001060 246.8753 113.1987 15.27576276157108","category":"Starlink"}]}