OBJECT_NAME,OBJECT_ID,EPOCH,MEAN_MOTION,ECCENTRICITY,INCLINATION,RA_OF_ASC_NODE,ARG_OF_PERICENTER,MEAN_ANOMALY,EPHEMERIS_TYPE,CLASSIFICATION_TYPE,NORAD_CAT_ID,ELEMENT_SET_NO,REV_AT_EPOCH,BSTAR,MEAN_MOTION_DOT,MEAN_MOTION_DDOT
HORS 1,2023-091Y,2026-05-14T06:48:26.453664,15.26105895,.0008562,97.5091,197.6928,201.5337,158.5543,0,U,57188,999,15914,.23407236E-3,.5969E-4,0
VIZARD-METEO (RS38S),2023-091Z,2026-05-14T06:13:07.186080,15.34905076,.00077867,97.5111,203.0920,180.5665,179.5571,0,U,57189,999,15948,.33198481E-3,.1117E-3,0
POLYTECH-UNIVERSE 3 (RS46S),2023-091AB,2026-05-14T06:44:52.163520,15.18778554,.00141667,97.5072,192.2926,244.3162,115.6610,0,U,57191,999,15880,.15336381E-3,.3126E-4,0
SITRO-AIS 6 (CHIRKIN),2023-091AC,2026-05-14T06:27:48.951648,15.25260477,.00109756,97.5091,197.1594,218.4017,141.6440,0,U,57192,999,15911,.17596677E-3,.4357E-4,0
SITRO-AIS 8 (ANOKHIN),2023-091AD,2026-05-14T05:53:07.469376,15.31178410,.00101609,97.5078,199.2950,210.0764,149.9895,0,U,57193,999,15925,.29873281E-3,.8932E-4,0
AVION KALUGA 650,2023-091AF,2026-05-14T06:17:50.221248,15.19975592,.00094015,97.5114,193.9819,221.5043,138.5479,0,U,57195,999,15887,.17118061E-3,.3618E-4,0
HORS 2,2023-091AG,2026-05-14T06:03:10.983744,15.30994010,.00081802,97.5110,200.8406,192.7547,167.3488,0,U,57196,999,15933,.31712451E-3,.9428E-4,0
CSTP 1.1 (STC 1.1),2023-091AN,2026-05-14T06:44:34.280448,15.18785798,.00086202,97.5138,193.2840,219.1584,140.9027,0,U,57202,999,15881,.15964347E-3,.3253E-4,0
UTMN 2 (RS27S),2023-091AP,2026-05-14T06:48:03.786624,15.31182486,.00081989,97.5109,201.0551,188.3136,171.7970,0,U,57203,999,15935,.28504685E-3,.8516E-4,0
SITRO-AIS 12 (SMIRENNIY),2023-091AQ,2026-05-14T07:09:25.935840,15.37112936,.00071827,97.5111,204.2657,176.3198,183.8100,0,U,57204,999,15956,.3451992E-3,.12471E-3,0
2023-091AS,2023-091AS,2026-05-14T06:23:26.693952,15.58404611,.00053673,97.5064,212.1307,161.4419,198.7034,0,U,57206,999,16010,.65142947E-3,.49686E-3,0
SITRO-AIS 11 (SHEFFER),2023-091AU,2026-05-14T06:07:59.916576,15.37504294,.00071169,97.5109,204.4482,176.2679,183.8620,0,U,57208,999,15957,.35558746E-3,.13014E-3,0
H2SAT (HEINRICH HERTZ),2023-093A,2026-05-14T05:56:47.771232,1.00276862,.00010748,0.0112,264.9353,210.8910,206.0589,0,U,57213,999,1057,0,0,0
SYRACUSE 4B,2023-093B,2026-05-14T05:54:40.473792,1.00269448,.00003368,0.0162,299.2752,255.4327,119.4773,0,U,57214,999,662,0,0,0
KUZGTU 1 (RS47S),2023-091AV,2026-05-14T06:35:05.872992,15.29049585,.00105709,97.5087,198.4275,208.1950,151.8719,0,U,57217,999,15919,.27783761E-3,.7772E-4,0
STARLINK-5525,2023-094A,2026-05-13T23:45:05.035104,15.27568521,.00010507,43.0023,21.8316,262.1796,97.8936,0,U,57218,999,15710,.38297625E-4,.792E-5,0
STARLINK-5983,2023-094G,2026-05-13T23:30:15.315552,15.27576276,.00010604,43.0030,21.7471,246.8753,113.1987,0,U,57224,999,15710,.817336E-5,-.37E-6,0
STARLINK-6294,2023-094H,2026-05-13T23:08:15.511488,15.27576829,.00014127,43.0050,22.4834,269.3775,90.6915,0,U,57225,999,15709,.45316701E-4,.985E-5,0
